0 GORIZONT 31
1 23775U 96005A   13282.00312637  .00000037  00000-0  10000-3 0  4878
2 23775 012.6381 036.9708 0022364 111.4281 248.8110 00.99894985 64763
0 GORIZONT 31
1 23775U 96005A   13285.00613985  .00000004  00000-0  10000-3 0  4886
2 23775 012.6425 036.9370 0022361 110.6838 249.5577 00.99896077 64795
0 GORIZONT 31
1 23775U 96005A   13286.00713118 -.00000006  00000-0  10000-3 0  4890
2 23775 012.6444 036.9250 0022264 111.8461 248.3905 00.99896418 64803
0 GORIZONT 31
1 23775U 96005A   13292.01292923 -.00000063  00000-0  10000-3 0  4909
2 23775 012.6537 036.8556 0022106 112.2506 247.9491 00.99898176 64868
0 GORIZONT 31
1 23775U 96005A   13294.01486538 -.00000080  00000-0  10000-3 0  4918
2 23775 012.6571 036.8323 0022147 112.8549 247.3406 00.99898615 64886
